FLOCK 4G-15             
1 62678U 25009BX  26068.71779869  .00012647  00000+0  47575-3 0  9991
2 62678  97.4054 151.1927 0003699 316.8208  43.2740 15.27266411121358
STARLINK-34057          
1 63814U 25092L   26068.33418944  .00028696  00000+0  10480-2 0  9993
2 63814  42.9942 174.2620 0000957 168.9023 191.1850 15.27586967 48560
